KUIPER-00061            
1 64521U 25134X   25273.83336806 -.01936377  00000+0 -17291+0 0  9995
2 64521  51.8914 215.8578 0007766  96.5549  31.2107 14.98876946  4547
KUIPER-00062            
1 64522U 25134Y   25273.83336806 -.01524654  00000+0 -16276+0 0  9999
2 64522  51.8935 222.4895 0008984 116.9388  77.4926 14.91669026  5665
KUIPER-00063            
1 64523U 25134Z   25273.57024088  .00008573  00000+0  11594-2 0  9992
2 64523  51.9009 226.0245 0004401  65.4874 294.6547 14.79663579 16292
KUIPER-00064            
1 64524U 25134AA  25273.28219563  .00011296  00000+0  15342-2 0  9996
2 64524  51.9011 224.4980 0006070 176.7139 183.3864 14.79200727 16296
KUIPER-00065            
1 64525U 25134AB  25273.60109987  .00008849  00000+0  11892-2 0  9997
2 64525  51.8992 228.1145 0011977 111.6009 248.6230 14.79864255 16254
KUIPER-00066            
1 64526U 25134AC  25273.83336806  .00041823  00000+0  20606-2 0  9997
2 64526  51.8883 217.4325 0005549 109.8413 349.6979 15.17538249  5851
KUIPER-00069            
1 64816U 25151A   25274.16667823 -.00669755  00000+0 -21734-1 0  9995
2 64816  51.8794 276.3766 0006431  68.6852 358.4778 15.33770339  4453
KUIPER-00070            
1 64817U 25151B   25274.07494154  .00006181  00000+0  85499-3 0  9997
2 64817  51.8984 291.3299 0009934  85.9470 274.2627 14.79113828 12788
